OBJECT_NAME,OBJECT_ID,EPOCH,MEAN_MOTION,ECCENTRICITY,INCLINATION,RA_OF_ASC_NODE,ARG_OF_PERICENTER,MEAN_ANOMALY,EPHEMERIS_TYPE,CLASSIFICATION_TYPE,NORAD_CAT_ID,ELEMENT_SET_NO,REV_AT_EPOCH,BSTAR,MEAN_MOTION_DOT,MEAN_MOTION_DDOT
STARLINK-35002,2025-184U,2026-07-17T01:37:04.636992,15.05659580,.00015444,97.2838,247.9647,125.7534,234.3837,0,U,65291,999,5076,.12200379E-3,.1705E-4,0
STARLINK-35017,2025-184V,2026-07-17T14:38:38.578272,15.05661505,.00013392,97.2845,248.6059,125.5901,234.5451,0,U,65292,999,5080,.19721282E-3,.2791E-4,0
STARLINK-34951,2025-184W,2026-07-17T08:59:42.895392,15.05663020,.00016362,97.2819,248.3134,112.9938,247.1462,0,U,65293,999,5081,.18700479E-3,.2644E-4,0
STARLINK-34613,2025-184X,2026-07-17T14:02:44.812032,15.05658859,.00019609,97.2822,248.4854,102.9362,257.2084,0,U,65294,999,5084,.1396826E-3,.196E-4,0
STARLINK-34834,2025-184Y,2026-07-17T14:30:39.175776,15.05658198,.00016903,97.2832,248.4592,109.1372,251.0039,0,U,65295,999,5084,.10755772E-3,.1496E-4,0
STARLINK-34872,2025-184Z,2026-07-17T14:14:43.204704,15.05670561,.00028383,97.2835,248.4749,124.2395,235.9102,0,U,65296,999,5084,.20557414E-3,.2913E-4,0
DRESDEN,2025-185A,2026-07-17T12:11:07.593792,14.79904450,.00091037,97.9641,281.5576,354.8385,5.2731,0,U,65297,999,4831,.54609152E-3,.4073E-4,0
FOURIER,2025-185B,2026-07-17T12:09:54.615168,14.79898111,.00091959,97.9662,281.6230,350.4443,9.6592,0,U,65298,999,4832,.58579406E-3,.4372E-4,0
STARK,2025-185C,2026-07-17T12:14:11.396832,14.81993670,.00074177,97.9633,281.9334,356.6856,3.4306,0,U,65299,999,4834,.11290991E-3,.842E-5,0
BASIL,2025-185E,2026-07-17T07:16:37.105536,14.79883903,.00091765,97.9664,281.4301,348.0242,12.0750,0,U,65301,999,4829,.49972532E-3,.372E-4,0
DOJO,2025-185F,2026-07-17T13:44:35.856672,14.79858525,.00091919,97.9657,281.6951,346.5411,13.5554,0,U,65302,999,4833,.63399677E-3,.4732E-4,0
HULIANWANG DIGUI-73,2025-187A,2026-07-17T15:50:43.409760,13.29323611,.00000916,50.0053,96.5902,332.1629,27.9238,0,U,65305,999,4375,.58772013E-4,-.97E-6,0
HULIANWANG DIGUI-74,2025-187B,2026-07-17T15:26:48.107904,13.29321608,.0000097,50.0095,96.6123,316.6505,43.4360,0,U,65306,999,4375,.54834226E-4,-.99E-6,0
HULIANWANG DIGUI-75,2025-187C,2026-07-17T15:02:45.961440,13.29322798,.00001016,50.0088,96.5058,331.3113,28.7753,0,U,65307,999,4375,.6522803E-4,-.94E-6,0
HULIANWANG DIGUI-76,2025-187D,2026-07-17T11:02:17.316960,13.29323822,.0000083,50.0012,97.4218,22.7093,337.3782,0,U,65308,999,4372,.69259196E-4,-.92E-6,0
HULIANWANG DIGUI-77,2025-187E,2026-07-17T10:50:06.658944,13.29323759,.00001098,50.0046,97.4663,198.7801,161.3067,0,U,65309,999,4372,.62740435E-4,-.95E-6,0
HULIANWANG DIGUI-78,2025-187F,2026-07-17T15:14:54.515616,13.29322766,.00000755,50.0112,96.6115,331.2214,28.8654,0,U,65310,999,4375,.57382481E-4,-.97E-6,0
HULIANWANG DIGUI-79,2025-187G,2026-07-17T11:14:13.516800,13.29319579,.00001474,50.0041,97.5404,324.5480,35.5383,0,U,65311,999,4372,.7056181E-4,-.91E-6,0
HULIANWANG DIGUI-80,2025-187H,2026-07-17T12:26:22.083360,13.29322929,.00001147,50.0032,97.1171,199.4111,160.6757,0,U,65312,999,4373,.6643409E-4,-.93E-6,0
HULIANWANG DIGUI-81,2025-187J,2026-07-17T12:02:25.719648,13.29319709,.00000965,50.0071,97.1341,320.2299,39.8566,0,U,65313,999,4374,.50417411E-4,-.101E-5,0
PELICAN-3,2025-188A,2026-07-17T04:16:51.591360,15.41294631,.0001929,97.1983,273.8862,120.3972,239.7466,0,U,65315,999,4993,.11235409E-3,.4594E-4,0
PELICAN-4,2025-188B,2026-07-17T11:00:32.575104,15.40349945,.00016194,97.1993,274.3102,73.5671,286.5754,0,U,65316,999,4997,.11620408E-3,.4607E-4,0
NAOS,2025-188C,2026-07-17T15:09:09.744192,15.38489364,.00010032,97.2021,273.4144,10.4164,349.7102,0,U,65317,999,4994,.12861237E-3,.4803E-4,0
CAPELLA-16 (ACADIA-6),2025-188D,2026-07-17T15:10:22.111104,14.94066782,.0005869,97.7378,273.3290,128.2944,231.8805,0,U,65318,999,4846,.31478E-3,.3306E-4,0
FFLY03,2025-188E,2026-07-17T15:03:48.898656,14.92831026,.00083401,97.7311,273.2183,13.8999,346.2448,0,U,65319,999,4845,.69894428E-4,.668E-5,0
FFLY01,2025-188F,2026-07-17T14:31:30.520704,14.92715443,.00111309,97.7368,273.3263,77.1994,283.0469,0,U,65320,999,4844,.57992609E-4,.543E-5,0
LEAP-1,2025-188G,2026-07-17T15:31:01.200288,14.91654462,.00045901,97.7354,272.4672,104.8955,255.2772,0,U,65321,999,4839,.10066286E-3,.956E-5,0
FFLY02,2025-188H,2026-07-17T14:02:13.641504,14.92728122,.00132027,97.7358,273.3029,30.4595,329.7388,0,U,65322,999,4844,.36556808E-4,.321E-5,0
STARLINK-34899,2025-189A,2026-07-17T08:44:23.873280,15.31709436,.00003551,53.1580,323.4733,47.2043,312.8989,0,U,65323,999,5097,-.3590957E-4,-.1479E-4,0
STARLINK-34196,2025-189B,2026-07-17T14:47:16.884960,15.31704352,.00009777,53.1613,322.2209,72.1577,287.9531,0,U,65324,999,5096,.44491517E-3,.13468E-3,0
