STARLINK-35002          
1 65291U 25184U   26198.06741478  .00001705  00000+0  12200-3 0  9996
2 65291  97.2838 247.9647 0001544 125.7534 234.3837 15.05659580 50764
STARLINK-35017          
1 65292U 25184V   26198.61016873  .00002791  00000+0  19721-3 0  9993
2 65292  97.2845 248.6059 0001339 125.5901 234.5451 15.05661505 50805
STARLINK-34951          
1 65293U 25184W   26198.37480203  .00002644  00000+0  18700-3 0  9992
2 65293  97.2819 248.3134 0001636 112.9938 247.1462 15.05663020 50815
STARLINK-34613          
1 65294U 25184X   26198.58524088  .00001960  00000+0  13968-3 0  9997
2 65294  97.2822 248.4854 0001960 102.9362 257.2084 15.05658859 50849
STARLINK-34834          
1 65295U 25184Y   26198.60462009  .00001496  00000+0  10756-3 0  9991
2 65295  97.2832 248.4592 0001690 109.1372 251.0039 15.05658198 50848
STARLINK-34872          
1 65296U 25184Z   26198.59355561  .00002913  00000+0  20557-3 0  9999
2 65296  97.2835 248.4749 0002838 124.2395 235.9102 15.05670561 50844
DRESDEN                 
1 65297U 25185A   26198.50772678  .00004073  00000+0  54609-3 0  9998
2 65297  97.9641 281.5576 0009103 354.8385   5.2731 14.79904450 48317
FOURIER                 
1 65298U 25185B   26198.50688212  .00004372  00000+0  58579-3 0  9991
2 65298  97.9662 281.6230 0009195 350.4443   9.6592 14.79898111 48327
STARK                   
1 65299U 25185C   26198.50985413  .00000842  00000+0  11291-3 0  9993
2 65299  97.9633 281.9334 0007417 356.6856   3.4306 14.81993670 48341
BASIL                   
1 65301U 25185E   26198.30320724  .00003720  00000+0  49973-3 0  9999
2 65301  97.9664 281.4301 0009176 348.0242  12.0750 14.79883903 48293
DOJO                    
1 65302U 25185F   26198.57263723  .00004732  00000+0  63400-3 0  9999
2 65302  97.9657 281.6951 0009191 346.5411  13.5554 14.79858525 48332
HULIANWANG DIGUI-73     
1 65305U 25187A   26198.66022465 -.00000097  00000+0  58772-4 0  9998
2 65305  50.0053  96.5902 0000091 332.1629  27.9238 13.29323611 43752
HULIANWANG DIGUI-74     
1 65306U 25187B   26198.64361236 -.00000099  00000+0  54834-4 0  9996
2 65306  50.0095  96.6123 0000097 316.6505  43.4360 13.29321608 43754
HULIANWANG DIGUI-75     
1 65307U 25187C   26198.62692085 -.00000094  00000+0  65228-4 0  9998
2 65307  50.0088  96.5058 0000101 331.3113  28.7753 13.29322798 43751
HULIANWANG DIGUI-76     
1 65308U 25187D   26198.45992265 -.00000092  00000+0  69259-4 0  9999
2 65308  50.0012  97.4218 0000083  22.7093 337.3782 13.29323822 43721
HULIANWANG DIGUI-77     
1 65309U 25187E   26198.45146596 -.00000095  00000+0  62740-4 0  9999
2 65309  50.0046  97.4663 0000109 198.7801 161.3067 13.29323759 43723
HULIANWANG DIGUI-78     
1 65310U 25187F   26198.63535319 -.00000097  00000+0  57382-4 0  9994
2 65310  50.0112  96.6115 0000075 331.2214  28.8654 13.29322766 43755
HULIANWANG DIGUI-79     
1 65311U 25187G   26198.46821200 -.00000091  00000+0  70562-4 0  9992
2 65311  50.0041  97.5404 0000147 324.5480  35.5383 13.29319579 43727
HULIANWANG DIGUI-80     
1 65312U 25187H   26198.51831115 -.00000093  00000+0  66434-4 0  9990
2 65312  50.0032  97.1171 0000114 199.4111 160.6757 13.29322929 43738
HULIANWANG DIGUI-81     
1 65313U 25187J   26198.50168657 -.00000101  00000+0  50417-4 0  9998
2 65313  50.0071  97.1341 0000096 320.2299  39.8566 13.29319709 43749
PELICAN-3               
1 65315U 25188A   26198.17837490  .00004594  00000+0  11235-3 0  9995
2 65315  97.1983 273.8862 0001929 120.3972 239.7466 15.41294631 49938
PELICAN-4               
1 65316U 25188B   26198.45871036  .00004607  00000+0  11620-3 0  9994
2 65316  97.1993 274.3102 0001619  73.5671 286.5754 15.40349945 49976
NAOS                    
1 65317U 25188C   26198.63136278  .00004803  00000+0  12861-3 0  9993
2 65317  97.2021 273.4144 0001003  10.4164 349.7102 15.38489364 49943
CAPELLA-16 (ACADIA-6)   
1 65318U 25188D   26198.63220036  .00003306  00000+0  31478-3 0  9992
2 65318  97.7378 273.3290 0005869 128.2944 231.8805 14.94066782 48466
FFLY03                  
1 65319U 25188E   26198.62764929  .00000668  00000+0  69894-4 0  9998
2 65319  97.7311 273.2183 0008340  13.8999 346.2448 14.92831026 48452
FFLY01                  
1 65320U 25188F   26198.60521436  .00000543  00000+0  57993-4 0  9991
2 65320  97.7368 273.3263 0011130  77.1994 283.0469 14.92715443 48449
LEAP-1                  
1 65321U 25188G   26198.64654167  .00000956  00000+0  10066-3 0  9991
2 65321  97.7354 272.4672 0004590 104.8955 255.2772 14.91654462 48390
FFLY02                  
1 65322U 25188H   26198.58488011  .00000321  00000+0  36557-4 0  9998
2 65322  97.7358 273.3029 0013202  30.4595 329.7388 14.92728122 48447
STARLINK-34899          
1 65323U 25189A   26198.36416520 -.00001479  00000+0 -35910-4 0  9991
2 65323  53.1580 323.4733 0000355  47.2043 312.8989 15.31709436 50971
STARLINK-34196          
1 65324U 25189B   26198.61616765  .00013468  00000+0  44492-3 0  9996
2 65324  53.1613 322.2209 0000977  72.1577 287.9531 15.31704352 50969
